ONEWEB-0415             
1 51624U 22012C   26025.83200190 -.00000459  00000+0 -13515-2 0  9999
2 51624  87.8768  64.6396 0001791 106.0720 254.0605 13.10375984190645
ONEWEB-0416             
1 51625U 22012D   26025.84363587  .00000120  00000+0  30616-3 0  9996
2 51625  87.8763  64.6580 0002088 108.4058 251.7296 13.10376911190681
ONEWEB-0422             
1 51626U 22012E   26025.46740980  .00000062  00000+0  12742-3 0  9996
2 51626  87.9092  34.2087 0001231  75.4240 284.7028 13.17649819195016
ONEWEB-0423             
1 51627U 22012F   26025.46064584  .00000040  00000+0  69584-4 0  9999
2 51627  87.9091  34.2199 0001757  86.8300 273.3033 13.17651145194908
ONEWEB-0425             
1 51628U 22012G   26025.85360425  .00000564  00000+0  15790-2 0  9995
2 51628  87.8771  64.6305 0002161  91.4935 268.6440 13.10375495190689
ONEWEB-0428             
1 51629U 22012H   26025.83366257 -.00000376  00000+0 -11138-2 0  9998
2 51629  87.8767  64.6503 0001796  95.3408 264.7925 13.10376637190646
ONEWEB-0431             
1 51630U 22012J   26025.57457606 -.00000082  00000+0 -27219-3 0  9992
2 51630  87.8763  64.6847 0001487 117.8178 242.3100 13.10370878190666
ONEWEB-0434             
1 51631U 22012K   26025.85706626  .00000550  00000+0  15387-2 0  9993
2 51631  87.8761  64.6604 0002464  87.1141 273.0269 13.10374759190682
